COSMOS 2251 DEB         
1 34788U 93036AAR 17345.50107434  .00000723  00000-0  69559-4 0  9995
2 34788  73.9913 145.7703 0143336 288.7426 125.8159 14.87949976476527
